H1 CPF 01  gfz 2022 09 21 00  7641 tandemx   
H2 1003001  6202 36605    2022 09 21 00 59 42 2022 09 26 00 00 42   120 1 1  0 0 0
H9
10 0 59843  53262.000000  0     118140.916  -1202143.042   6770889.018
10 0 59843  53382.000000  0    -509160.004  -1854723.256   6603761.131
10 0 59843  53502.000000  0   -1138617.173  -2463940.056   6320578.712
10 0 59843  53622.000000  0   -1758391.526  -3019217.340   5926288.231
10 0 59843  53742.000000  0   -2356628.031  -3511117.929   5427783.893
10 0 59843  53862.000000  0   -2921683.715  -3931508.269   4833795.202
10 0 59843  53982.000000  0   -3442358.629  -4273698.439   4154739.838
10 0 59843  54102.000000  0   -3908121.636  -4532553.457   3402543.858
10 0 59843  54222.000000  0   -4309326.336  -4704574.553   2590433.785
10 0 59843  54342.000000  0   -4637414.124  -4787949.006   1732703.696
10 0 59843  54462.000000  0   -4885099.265  -4782565.722    844459.286
10 0 59843  54582.000000  0   -5046530.251  -4689995.766    -58654.699
10 0 59843  54702.000000  0   -5117423.809  -4513438.711   -960738.321
10 0 59843  54822.000000  0   -5095167.501  -4257635.765  -1845926.120
10 0 59843  54942.000000  0   -4978887.415  -3928750.970  -2698675.297
10 0 59843  55062.000000  0   -4769479.671  -3534224.763  -3504044.203
10 0 59843  55182.000000  0   -4469606.832  -3082605.162  -4247956.068
10 0 59843  55302.000000  0   -4083659.729  -2583360.595  -4917443.908
10 0 59843  55422.000000  0   -3617685.568  -2046678.805  -5500871.549
10 0 59843  55542.000000  0   -3079285.349  -1483257.325  -5988127.604
10 0 59843  55662.000000  0   -2477483.452   -904089.660  -6370790.439
10 0 59843  55782.000000  0   -1822571.417   -320251.885  -6642262.493
10 0 59843  55902.000000  0   -1125929.525    257305.945  -6797871.798
10 0 59843  56022.000000  0    -399831.555    817959.662  -6834942.657
10 0 59843  56142.000000  0     342766.800   1351601.447  -6752836.686
10 0 59843  56262.000000  0    1088452.272   1848816.580  -6552963.300
10 0 59843  56382.000000  0    1823591.321   2301046.628  -6238760.065
10 0 59843  56502.000000  0    2534574.453   2700735.315  -5815639.730
10 0 59843  56622.000000  0    3208064.850   3041454.913  -5290905.627
10 0 59843  56742.000000  0    3831246.193   3318011.069  -4673637.180
10 0 59843  56862.000000  0    4392068.780   3526525.926  -3974544.765
10 0 59843  56982.000000  0    4879487.576   3664495.713  -3205793.410
10 0 59843  57102.000000  0    5283685.732   3730821.380  -2380797.558
10 0 59843  57222.000000  0    5596279.222   3725812.465  -1513990.917
10 0 59843  57342.000000  0    5810497.833   3651161.819   -620573.316
10 0 59843  57462.000000  0    5921336.465   3509891.801    283759.200
10 0 59843  57582.000000  0    5925673.721   3306273.136   1183096.455
10 0 59843  57702.000000  0    5822352.747   3045717.530   2061602.638
10 0 59843  57822.000000  0    5612222.214   2734647.703   2903803.652
10 0 59843  57942.000000  0    5298137.122   2380347.634   3694868.573
10 0 59843  58062.000000  0    4884917.474   1990796.136   4420877.464
10 0 59843  58182.000000  0    4379267.436   1574489.272   5069068.184
10 0 59843  58302.000000  0    3789661.207   1140256.189   5628061.095
10 0 59843  58422.000000  0    3126191.032    697072.138   6088058.092
10 0 59843  58542.000000  0    2400385.575    253873.146   6441007.199
10 0 59843  58662.000000  0    1625005.404   -180622.209   6680736.756
10 0 59843  58782.000000  0     813815.968   -598083.121   6803059.161
10 0 59843  58902.000000  0     -18659.524   -990725.809   6805839.807
10 0 59843  59022.000000  0    -857400.439  -1351457.871   6689031.083
10 0 59843  59142.000000  0   -1687159.085  -1674006.566   6454672.208
10 0 59843  59262.000000  0   -2492736.097  -1953027.458   6106854.632
10 0 59843  59382.000000  0   -3259257.226  -2184192.722   5651656.978
10 0 59843  59502.000000  0   -3972452.028  -2364260.183   5097046.993
10 0 59843  59622.000000  0   -4618924.961  -2491119.547   4452746.635
10 0 59843  59742.000000  0   -5186413.250  -2563814.385   3730065.449
10 0 59843  59862.000000  0   -5664026.393  -2582539.183   2941704.815
10 0 59843  59982.000000  0   -6042463.391  -2548612.632   2101536.182
10 0 59843  60102.000000  0   -6314203.093  -2464428.286   1224354.904
10 0 59843  60222.000000  0   -6473660.335  -2333381.210    325612.427
10 0 59843  60342.000000  0   -6517303.083  -2159772.788   -578863.333
10 0 59843  60462.000000  0   -6443729.815  -1948696.742  -1473156.396
10 0 59843  60582.000000  0   -6253701.832  -1705909.205  -2341551.967
10 0 59843  60702.000000  0   -5950132.175  -1437686.651  -3168819.188
10 0 59843  60822.000000  0   -5538032.079  -1150675.274  -3940482.081
10 0 59843  60942.000000  0   -5024417.035   -851735.737  -4643073.395
10 0 59843  61062.000000  0   -4418175.294   -547786.724  -5264366.685
10 0 59843  61182.000000  0   -3729901.844   -245651.686  -5793582.409
10 0 59843  61302.000000  0   -2971703.098     48088.078  -6221564.690
10 0 59843  61422.000000  0   -2156977.905    327230.761  -6540927.466
10 0 59843  61542.000000  0   -1300178.534    586078.701  -6746170.590
10 0 59843  61662.000000  0    -416555.791    819549.346  -6833764.329
10 0 59843  61782.000000  0     478106.914   1023271.632  -6802202.172
10 0 59843  61902.000000  0    1367767.242   1193664.455  -6652025.031
10 0 59843  62022.000000  0    2236405.808   1327998.549  -6385815.060
10 0 59843  62142.000000  0    3068309.230   1424440.092  -6008155.822
10 0 59843  62262.000000  0    3848350.414   1482074.625  -5525560.364
10 0 59843  62382.000000  0    4562261.473   1500911.531  -4946369.909
10 0 59843  62502.000000  0    5196898.113   1481869.346  -4280621.814
10 0 59843  62622.000000  0    5740488.139   1426741.364  -3539885.513
10 0 59843  62742.000000  0    6182858.596   1338141.855  -2737070.111
10 0 59843  62862.000000  0    6515638.008   1219434.002  -1886205.592
10 0 59843  62982.000000  0    6732427.647   1074641.015  -1002198.734
10 0 59843  63102.000000  0    6828935.601    908341.456   -100569.089
10 0 59843  63222.000000  0    6803069.332    725552.148    802829.292
10 0 59843  63342.000000  0    6654985.936    531601.663   1692093.263
10 0 59843  63462.000000  0    6387098.028    331995.923   2551560.214
10 0 59843  63582.000000  0    6004031.639    132280.990   3366092.890
10 0 59843  63702.000000  0    5512540.647    -62094.375   4121353.098
10 0 59843  63822.000000  0    4921378.686   -245910.996   4804057.501
10 0 59843  63942.000000  0    4241134.553   -414305.270   5402213.750
10 0 59843  64062.000000  0    3484030.813   -562885.429   5905329.373
10 0 59843  64182.000000  0    2663695.522   -687833.804   6304591.107
10 0 59843  64302.000000  0    1794910.461   -785995.000   6593013.604
10 0 59843  64422.000000  0     893340.659   -854947.736   6765556.845
10 0 59843  64542.000000  0     -24751.619   -893059.185   6819208.856
10 0 59843  64662.000000  0    -942800.546   -899520.569   6753033.686
10 0 59843  64782.000000  0   -1844234.459   -874363.956   6568186.033
10 0 59843  64902.000000  0   -2712773.409   -818459.132   6267891.919
10 0 59843  65022.000000  0   -3532722.244   -733491.128   5857396.998
10 0 59843  65142.000000  0   -4289257.050   -621918.877   5343881.760
10 0 59843  65262.000000  0   -4968699.062   -486916.077   4736342.322
10 0 59843  65382.000000  0   -5558769.609   -332294.552   4045437.482
10 0 59843  65502.000000  0   -6048820.690   -162411.882   3283304.715
10 0 59843  65622.000000  0   -6430036.294     17934.974   2463348.978
10 0 59843  65742.000000  0   -6695601.771    203628.212   1600006.047
10 0 59843  65862.000000  0   -6840834.633    389356.167    708483.435
10 0 59843  65982.000000  0   -6863273.135    569745.722   -195515.055
10 0 59843  66102.000000  0   -6762719.718    739497.340  -1096075.234
10 0 59843  66222.000000  0   -6541237.680    893518.711  -1977361.538
10 0 59843  66342.000000  0   -6203104.138   1027053.436  -2823901.806
10 0 59843  66462.000000  0   -5754719.989   1135802.713  -3620866.363
10 0 59843  66582.000000  0   -5204475.050   1216035.402  -4354330.704
10 0 59843  66702.000000  0   -4562577.961   1264684.470  -5011516.436
10 0 59843  66822.000000  0   -3840854.367   1279427.727  -5581007.895
10 0 59843  66942.000000  0   -3052519.506   1258751.368  -6052940.985
10 0 59843  67062.000000  0   -2211930.071   1201994.549  -6419163.155
10 0 59843  67182.000000  0   -1334320.033   1109376.060  -6673362.918
10 0 59843  67302.000000  0    -435525.210    982001.892  -6811166.811
10 0 59843  67422.000000  0     468296.755    821853.572  -6830205.252
10 0 59843  67542.000000  0    1360948.521    631758.192  -6730150.280
10 0 59843  67662.000000  0    2226477.753    415339.451  -6512722.136
10 0 59843  67782.000000  0    3049456.059    176951.021  -6181662.389
10 0 59843  67902.000000  0    3815250.254    -78406.710  -5742676.186
10 0 59843  68022.000000  0    4510280.110   -345186.515  -5203342.971
10 0 59843  68142.000000  0    5122261.503   -617407.991  -4572998.240
10 0 59843  68262.000000  0    5640430.807   -888784.357  -3862582.894
10 0 59843  68382.000000  0    6055743.422  -1152859.457  -3084462.592
10 0 59843  68502.000000  0    6361043.152  -1403152.718  -2252219.400
10 0 59843  68622.000000  0    6551198.220  -1633308.645  -1380417.990
10 0 59843  68742.000000  0    6623199.097  -1837247.029   -484349.969
10 0 59843  68862.000000  0    6576215.410  -2009310.113    420238.100
10 0 59843  68982.000000  0    6411609.964  -2144403.404   1317428.635
10 0 59843  69102.000000  0    6132907.721  -2238125.472   2191421.978
10 0 59843  69222.000000  0    5745721.241  -2286884.468   3026823.759
10 0 59843  69342.000000  0    5257633.812  -2287996.714   3808924.415
10 0 59843  69462.000000  0    4678043.193  -2239766.014   4523963.040
10 0 59843  69582.000000  0    4017973.308  -2141541.247   5159371.206
10 0 59843  69702.000000  0    3289856.634  -1993752.168   5703995.200
99
